IRIDIUM 33              
1 24946U 97051C   26063.42674667  .00000454  00000+0  15235-3 0  9997
2 24946  86.3873  33.9069 0006380 321.3752  38.6987 14.35097837490069
IRIDIUM 33 DEB          
1 33773U 97051L   26063.38220831  .00001710  00000+0  50011-3 0  9997
2 33773  86.4028  25.9705 0008983 239.1625 120.8693 14.43465800895250
IRIDIUM 33 DEB          
1 33775U 97051N   26063.62841729  .00002121  00000+0  64393-3 0  9996
2 33775  86.3668  14.5790 0010777 252.5553 230.0888 14.41738373893201
IRIDIUM 33 DEB          
1 33776U 97051P   26063.49144682  .00001290  00000+0  41682-3 0  9998
2 33776  86.4016  46.4112 0012438 294.1617 184.2892 14.38395257892571
IRIDIUM 33 DEB          
1 33777U 97051Q   26063.82522766  .00004322  00000+0  97155-3 0  9994
2 33777  86.3834 359.4770 0006911   3.3645 356.7608 14.56292216897281
IRIDIUM 33 DEB          
1 33850U 97051T   26063.78203245  .00001903  00000+0  56872-3 0  9992
2 33850  86.3467 354.9025 0008894 261.8757 127.1380 14.42468693893355
IRIDIUM 33 DEB          
1 33853U 97051W   26063.80497044  .00003321  00000+0  18714-2 0  9998
2 33853  86.0000 313.8295 0210576 345.1447 101.3308 13.99559470864936
IRIDIUM 33 DEB          
1 33860U 97051AD  26063.78323996  .00012409  00000+0  21119-2 0  9997
2 33860  86.3875 350.8854 0011648  60.7746 321.0755 14.68955726899262
IRIDIUM 33 DEB          
1 33862U 97051AF  26063.77757709  .00016810  00000+0  26375-2 0  9990
2 33862  86.4132   1.2939 0050242 139.7721 242.0294 14.71691641900298
IRIDIUM 33 DEB          
1 33866U 97051AK  26063.43626199  .00004671  00000+0  18399-2 0  9994
2 33866  86.2982  58.4415 0110802 259.7495 264.5453 14.25703804879741
IRIDIUM 33 DEB          
1 33870U 97051AP  26063.62915802  .00004235  00000+0  11727-2 0  9996
2 33870  86.3774  23.1320 0018205 272.7967 213.6728 14.46365302893200
IRIDIUM 33 DEB          
1 33881U 97051BA  26063.49355997  .00027320  00000+0  57074-2 0  9991
2 33881  86.3813  71.1326 0052784 260.2487 252.8127 14.58845613886913
IRIDIUM 33 DEB          
1 33884U 97051BD  26063.67249836  .00022625  00000+0  29702-2 0  9998
2 33884  86.3723 332.7774 0013941  33.1726   5.5874 14.80098484900587
IRIDIUM 33 DEB          
1 33886U 97051BF  26063.48099823  .00000916  00000+0  30746-3 0  9998
2 33886  86.3836  32.7976 0013577 348.5303 131.6770 14.36161174892252
IRIDIUM 33 DEB          
1 33887U 97051BG  26063.49716613  .00000634  00000+0  20591-3 0  9997
2 33887  86.3083 328.1822 0005743 354.1357 128.2730 14.37319189893393
IRIDIUM 33 DEB          
1 33953U 97051BN  26063.84109890  .00007661  00000+0  17215-2 0  9998
2 33953  86.3883  18.1098 0015479 172.8521 216.8565 14.56333142894983
