[{"OBJECT_NAME":"IRIDIUM 33","OBJECT_ID":"1997-051C","EPOCH":"2026-03-04T10:14:30.912288","MEAN_MOTION":14.35097837,"ECCENTRICITY":0.00063803,"INCLINATION":86.3873,"RA_OF_ASC_NODE":33.9069,"ARG_OF_PERICENTER":321.3752,"MEAN_ANOMALY":38.6987,"EPHEMERIS_TYPE":0,"CLASSIFICATION_TYPE":"U","NORAD_CAT_ID":24946,"ELEMENT_SET_NO":999,"REV_AT_EPOCH":49006,"BSTAR":0.00015235474,"MEAN_MOTION_DOT":4.54e-6,"MEAN_MOTION_DDOT":0},{"OBJECT_NAME":"IRIDIUM 33 DEB","OBJECT_ID":"1997-051L","EPOCH":"2026-03-04T09:10:22.797984","MEAN_MOTION":14.434658,"ECCENTRICITY":0.00089831,"INCLINATION":86.4028,"RA_OF_ASC_NODE":25.9705,"ARG_OF_PERICENTER":239.1625,"MEAN_ANOMALY":120.8693,"EPHEMERIS_TYPE":0,"CLASSIFICATION_TYPE":"U","NORAD_CAT_ID":33773,"ELEMENT_SET_NO":999,"REV_AT_EPOCH":89525,"BSTAR":0.00050011114,"MEAN_MOTION_DOT":1.71e-5,"MEAN_MOTION_DDOT":0},{"OBJECT_NAME":"IRIDIUM 33 DEB","OBJECT_ID":"1997-051N","EPOCH":"2026-03-04T15:04:55.253856","MEAN_MOTION":14.41738373,"ECCENTRICITY":0.0010777,"INCLINATION":86.3668,"RA_OF_ASC_NODE":14.579,"ARG_OF_PERICENTER":252.5553,"MEAN_ANOMALY":230.0888,"EPHEMERIS_TYPE":0,"CLASSIFICATION_TYPE":"U","NORAD_CAT_ID":33775,"ELEMENT_SET_NO":999,"REV_AT_EPOCH":89320,"BSTAR":0.00064393,"MEAN_MOTION_DOT":2.121e-5,"MEAN_MOTION_DDOT":0},{"OBJECT_NAME":"IRIDIUM 33 DEB","OBJECT_ID":"1997-051P","EPOCH":"2026-03-04T11:47:41.005248","MEAN_MOTION":14.38395257,"ECCENTRICITY":0.0012438,"INCLINATION":86.4016,"RA_OF_ASC_NODE":46.4112,"ARG_OF_PERICENTER":294.1617,"MEAN_ANOMALY":184.2892,"EPHEMERIS_TYPE":0,"CLASSIFICATION_TYPE":"U","NORAD_CAT_ID":33776,"ELEMENT_SET_NO":999,"REV_AT_EPOCH":89257,"BSTAR":0.00041682132,"MEAN_MOTION_DOT":1.29e-5,"MEAN_MOTION_DDOT":0},{"OBJECT_NAME":"IRIDIUM 33 DEB","OBJECT_ID":"1997-051Q","EPOCH":"2026-03-04T19:48:19.669824","MEAN_MOTION":14.56292216,"ECCENTRICITY":0.0006911,"INCLINATION":86.3834,"RA_OF_ASC_NODE":359.477,"ARG_OF_PERICENTER":3.3645,"MEAN_ANOMALY":356.7608,"EPHEMERIS_TYPE":0,"CLASSIFICATION_TYPE":"U","NORAD_CAT_ID":33777,"ELEMENT_SET_NO":999,"REV_AT_EPOCH":89728,"BSTAR":0.00097155,"MEAN_MOTION_DOT":4.322e-5,"MEAN_MOTION_DDOT":0},{"OBJECT_NAME":"IRIDIUM 33 DEB","OBJECT_ID":"1997-051T","EPOCH":"2026-03-04T18:46:07.603680","MEAN_MOTION":14.42468693,"ECCENTRICITY":0.0008894,"INCLINATION":86.3467,"RA_OF_ASC_NODE":354.9025,"ARG_OF_PERICENTER":261.8757,"MEAN_ANOMALY":127.138,"EPHEMERIS_TYPE":0,"CLASSIFICATION_TYPE":"U","NORAD_CAT_ID":33850,"ELEMENT_SET_NO":999,"REV_AT_EPOCH":89335,"BSTAR":0.00056872,"MEAN_MOTION_DOT":1.903e-5,"MEAN_MOTION_DDOT":0},{"OBJECT_NAME":"IRIDIUM 33 DEB","OBJECT_ID":"1997-051W","EPOCH":"2026-03-04T19:19:09.446016","MEAN_MOTION":13.9955947,"ECCENTRICITY":0.0210576,"INCLINATION":86,"RA_OF_ASC_NODE":313.8295,"ARG_OF_PERICENTER":345.1447,"MEAN_ANOMALY":101.3308,"EPHEMERIS_TYPE":0,"CLASSIFICATION_TYPE":"U","NORAD_CAT_ID":33853,"ELEMENT_SET_NO":999,"REV_AT_EPOCH":86493,"BSTAR":0.0018714,"MEAN_MOTION_DOT":3.321e-5,"MEAN_MOTION_DDOT":0},{"OBJECT_NAME":"IRIDIUM 33 DEB","OBJECT_ID":"1997-051AD","EPOCH":"2026-03-04T18:47:51.932544","MEAN_MOTION":14.68955726,"ECCENTRICITY":0.0011648,"INCLINATION":86.3875,"RA_OF_ASC_NODE":350.8854,"ARG_OF_PERICENTER":60.7746,"MEAN_ANOMALY":321.0755,"EPHEMERIS_TYPE":0,"CLASSIFICATION_TYPE":"U","NORAD_CAT_ID":33860,"ELEMENT_SET_NO":999,"REV_AT_EPOCH":89926,"BSTAR":0.0021119,"MEAN_MOTION_DOT":0.00012409,"MEAN_MOTION_DDOT":0},{"OBJECT_NAME":"IRIDIUM 33 DEB","OBJECT_ID":"1997-051AF","EPOCH":"2026-03-04T18:39:42.660576","MEAN_MOTION":14.71691641,"ECCENTRICITY":0.0050242,"INCLINATION":86.4132,"RA_OF_ASC_NODE":1.2939,"ARG_OF_PERICENTER":139.7721,"MEAN_ANOMALY":242.0294,"EPHEMERIS_TYPE":0,"CLASSIFICATION_TYPE":"U","NORAD_CAT_ID":33862,"ELEMENT_SET_NO":999,"REV_AT_EPOCH":90029,"BSTAR":0.0026375,"MEAN_MOTION_DOT":0.0001681,"MEAN_MOTION_DDOT":0},{"OBJECT_NAME":"IRIDIUM 33 DEB","OBJECT_ID":"1997-051AK","EPOCH":"2026-03-04T10:28:13.035936","MEAN_MOTION":14.25703804,"ECCENTRICITY":0.01108027,"INCLINATION":86.2982,"RA_OF_ASC_NODE":58.4415,"ARG_OF_PERICENTER":259.7495,"MEAN_ANOMALY":264.5453,"EPHEMERIS_TYPE":0,"CLASSIFICATION_TYPE":"U","NORAD_CAT_ID":33866,"ELEMENT_SET_NO":999,"REV_AT_EPOCH":87974,"BSTAR":0.0018398976,"MEAN_MOTION_DOT":4.671e-5,"MEAN_MOTION_DDOT":0},{"OBJECT_NAME":"IRIDIUM 33 DEB","OBJECT_ID":"1997-051AP","EPOCH":"2026-03-04T15:05:59.252928","MEAN_MOTION":14.46365302,"ECCENTRICITY":0.0018205,"INCLINATION":86.3774,"RA_OF_ASC_NODE":23.132,"ARG_OF_PERICENTER":272.7967,"MEAN_ANOMALY":213.6728,"EPHEMERIS_TYPE":0,"CLASSIFICATION_TYPE":"U","NORAD_CAT_ID":33870,"ELEMENT_SET_NO":999,"REV_AT_EPOCH":89320,"BSTAR":0.0011727,"MEAN_MOTION_DOT":4.235e-5,"MEAN_MOTION_DDOT":0},{"OBJECT_NAME":"IRIDIUM 33 DEB","OBJECT_ID":"1997-051BA","EPOCH":"2026-03-04T11:50:43.581408","MEAN_MOTION":14.58845613,"ECCENTRICITY":0.00527845,"INCLINATION":86.3813,"RA_OF_ASC_NODE":71.1326,"ARG_OF_PERICENTER":260.2487,"MEAN_ANOMALY":252.8127,"EPHEMERIS_TYPE":0,"CLASSIFICATION_TYPE":"U","NORAD_CAT_ID":33881,"ELEMENT_SET_NO":999,"REV_AT_EPOCH":88691,"BSTAR":0.0057073515,"MEAN_MOTION_DOT":0.0002732,"MEAN_MOTION_DDOT":0},{"OBJECT_NAME":"IRIDIUM 33 DEB","OBJECT_ID":"1997-051BD","EPOCH":"2026-03-04T16:08:23.858304","MEAN_MOTION":14.80098484,"ECCENTRICITY":0.0013941,"INCLINATION":86.3723,"RA_OF_ASC_NODE":332.7774,"ARG_OF_PERICENTER":33.1726,"MEAN_ANOMALY":5.5874,"EPHEMERIS_TYPE":0,"CLASSIFICATION_TYPE":"U","NORAD_CAT_ID":33884,"ELEMENT_SET_NO":999,"REV_AT_EPOCH":90058,"BSTAR":0.0029702,"MEAN_MOTION_DOT":0.00022625,"MEAN_MOTION_DDOT":0},{"OBJECT_NAME":"IRIDIUM 33 DEB","OBJECT_ID":"1997-051BF","EPOCH":"2026-03-04T11:32:38.247072","MEAN_MOTION":14.36161174,"ECCENTRICITY":0.00135778,"INCLINATION":86.3836,"RA_OF_ASC_NODE":32.7976,"ARG_OF_PERICENTER":348.5303,"MEAN_ANOMALY":131.677,"EPHEMERIS_TYPE":0,"CLASSIFICATION_TYPE":"U","NORAD_CAT_ID":33886,"ELEMENT_SET_NO":999,"REV_AT_EPOCH":89225,"BSTAR":0.00030745717,"MEAN_MOTION_DOT":9.16e-6,"MEAN_MOTION_DDOT":0},{"OBJECT_NAME":"IRIDIUM 33 DEB","OBJECT_ID":"1997-051BG","EPOCH":"2026-03-04T11:55:55.153632","MEAN_MOTION":14.37319189,"ECCENTRICITY":0.00057432,"INCLINATION":86.3083,"RA_OF_ASC_NODE":328.1822,"ARG_OF_PERICENTER":354.1357,"MEAN_ANOMALY":128.273,"EPHEMERIS_TYPE":0,"CLASSIFICATION_TYPE":"U","NORAD_CAT_ID":33887,"ELEMENT_SET_NO":999,"REV_AT_EPOCH":89339,"BSTAR":0.00020590709,"MEAN_MOTION_DOT":6.34e-6,"MEAN_MOTION_DDOT":0},{"OBJECT_NAME":"IRIDIUM 33 DEB","OBJECT_ID":"1997-051BN","EPOCH":"2026-03-04T20:11:10.944960","MEAN_MOTION":14.56333142,"ECCENTRICITY":0.0015479,"INCLINATION":86.3883,"RA_OF_ASC_NODE":18.1098,"ARG_OF_PERICENTER":172.8521,"MEAN_ANOMALY":216.8565,"EPHEMERIS_TYPE":0,"CLASSIFICATION_TYPE":"U","NORAD_CAT_ID":33953,"ELEMENT_SET_NO":999,"REV_AT_EPOCH":89498,"BSTAR":0.0017215,"MEAN_MOTION_DOT":7.661e-5,"MEAN_MOTION_DDOT":0}]
